{"type": "FeatureCollection", "features": [ {"type": "Feature", "properties": {"norad_id": 30648, "name": "FENGYUN 1C DEB", "group": "fengyun-1c-debris", "lat": 55.89693166644195, "lon": 66.85142150929076, "alt_km": 720.2407573434784, "timestamp": "2025-12-11T05:00:26.586413+00:00", "meta": {"OBJECT_NAME": "FENGYUN 1C DEB", "OBJECT_ID": "1999-025APF", "EPOCH": "2025-12-10T05:46:39.708768", "MEAN_MOTION": 14.48054581, "ECCENTRICITY": 0.0034584, "INCLINATION": 98.6411, "RA_OF_ASC_NODE": 78.8404, "ARG_OF_PERICENTER": 135.1437, "MEAN_ANOMALY": 279.3828, "EPHEMERIS_TYPE": 0, "CLASSIFICATION_TYPE": "U", "NORAD_CAT_ID": 30648, "ELEMENT_SET_NO": 999, "REV_AT_EPOCH": 97830, "BSTAR": 0.0034791, "MEAN_MOTION_DOT": 0.00013008, "MEAN_MOTION_DDOT": 0}, "tle": {"line1": "1 30648U 99025APF 25344.24073737  .00013008  00000+0  34791-2 0  9994", "line2": "2 30648  98.6411  78.8404 0034584 135.1437 279.3828 14.48054581978307"}}, "geometry": {"type": "Point", "coordinates": [66.85142150929076, 55.89693166644195]}}, {"type": "Feature", "properties": {"norad_id": 30649, "name": "FENGYUN 1C DEB", "group": "fengyun-1c-debris", "lat": -48.51365416129609, "lon": 90.59953782540948, "alt_km": 826.2826178212599, "timestamp": "2025-12-11T05:00:26.586423+00:00", "meta": {"OBJECT_NAME": "FENGYUN 1C DEB", "OBJECT_ID": "1999-025APG", "EPOCH": "2025-12-10T05:51:58.084128", "MEAN_MOTION": 14.29490304, "ECCENTRICITY": 0.0051389, "INCLINATION": 98.8088, "RA_OF_ASC_NODE": 79.5257, "ARG_OF_PERICENTER": 178.3328, "MEAN_ANOMALY": 212.798, "EPHEMERIS_TYPE": 0, "CLASSIFICATION_TYPE": "U", "NORAD_CAT_ID": 30649, "ELEMENT_SET_NO": 999, "REV_AT_EPOCH": 97028, "BSTAR": 0.0030237, "MEAN_MOTION_DOT": 7.796e-05, "MEAN_MOTION_DDOT": 0}, "tle": {"line1": "1 30649U 99025APG 25344.24442227  .00007796  00000+0  30237-2 0  9997", "line2": "2 30649  98.8088  79.5257 0051389 178.3328 212.7980 14.29490304970289"}}, "geometry": {"type": "Point", "coordinates": [90.59953782540948, -48.51365416129609]}}, {"type": "Feature", "properties": {"norad_id": 30650, "name": "FENGYUN 1C DEB", "group": "fengyun-1c-debris", "lat": 33.20652136244939, "lon": 19.660093471179362, "alt_km": 892.8267803173057, "timestamp": "2025-12-11T05:00:26.586433+00:00", "meta": {"OBJECT_NAME": "FENGYUN 1C DEB", "OBJECT_ID": "1999-025APH", "EPOCH": "2025-12-10T14:17:12.039072", "MEAN_MOTION": 14.13914913, "ECCENTRICITY": 0.0072174, "INCLINATION": 99.2041, "RA_OF_ASC_NODE": 25.121, "ARG_OF_PERICENTER": 195.5111, "MEAN_ANOMALY": 318.2058, "EPHEMERIS_TYPE": 0, "CLASSIFICATION_TYPE": "U", "NORAD_CAT_ID": 30650, "ELEMENT_SET_NO": 999, "REV_AT_EPOCH": 96268, "BSTAR": 0.0021461, "MEAN_MOTION_DOT": 4.128e-05, "MEAN_MOTION_DDOT": 0}, "tle": {"line1": "1 30650U 99025APH 25344.59527823  .00004128  00000+0  21461-2 0  9998", "line2": "2 30650  99.2041  25.1210 0072174 195.5111 318.2058 14.13914913962680"}}, "geometry": {"type": "Point", "coordinates": [19.660093471179362, 33.20652136244939]}}, {"type": "Feature", "properties": {"norad_id": 30652, "name": "FENGYUN 1C DEB", "group": "fengyun-1c-debris", "lat": 48.88478108463283, "lon": -151.41140879558205, "alt_km": 866.5001687518106, "timestamp": "2025-12-11T05:00:26.586443+00:00", "meta": {"OBJECT_NAME": "FENGYUN 1C DEB", "OBJECT_ID": "1999-025APJ", "EPOCH": "2025-12-10T13:46:03.075744", "MEAN_MOTION": 14.07803451, "ECCENTRICITY": 0.0007315, "INCLINATION": 98.7854, "RA_OF_ASC_NODE": 17.7655, "ARG_OF_PERICENTER": 272.1691, "MEAN_ANOMALY": 241.7218, "EPHEMERIS_TYPE": 0, "CLASSIFICATION_TYPE": "U", "NORAD_CAT_ID": 30652, "ELEMENT_SET_NO": 999, "REV_AT_EPOCH": 96663, "BSTAR": 0.00015183, "MEAN_MOTION_DOT": 2.14e-06, "MEAN_MOTION_DDOT": 0}, "tle": {"line1": "1 30652U 99025APJ 25344.57364671  .00000214  00000+0  15183-3 0  9995", "line2": "2 30652  98.7854  17.7655 0007315 272.1691 241.7218 14.07803451966632"}}, "geometry": {"type": "Point", "coordinates": [-151.41140879558205, 48.88478108463283]}}, {"type": "Feature", "properties": {"norad_id": 30654, "name": "FENGYUN 1C DEB", "group": "fengyun-1c-debris", "lat": 79.61331726778872, "lon": -154.25620761606623, "alt_km": 803.4412254800245, "timestamp": "2025-12-11T05:00:26.586452+00:00", "meta": {"OBJECT_NAME": "FENGYUN 1C DEB", "OBJECT_ID": "1999-025APL", "EPOCH": "2025-12-10T04:53:03.060096", "MEAN_MOTION": 14.17081119, "ECCENTRICITY": 0.003507, "INCLINATION": 99.2407, "RA_OF_ASC_NODE": 267.3446, "ARG_OF_PERICENTER": 103.7995, "MEAN_ANOMALY": 256.7085, "EPHEMERIS_TYPE": 0, "CLASSIFICATION_TYPE": "U", "NORAD_CAT_ID": 30654, "ELEMENT_SET_NO": 999, "REV_AT_EPOCH": 96644, "BSTAR": 0.0016599, "MEAN_MOTION_DOT": 3.315e-05, "MEAN_MOTION_DDOT": 0}, "tle": {"line1": "1 30654U 99025APL 25344.20350764  .00003315  00000+0  16599-2 0  9991", "line2": "2 30654  99.2407 267.3446 0035070 103.7995 256.7085 14.17081119966447"}}, "geometry": {"type": "Point", "coordinates": [-154.25620761606623, 79.61331726778872]}}, {"type": "Feature", "properties": {"norad_id": 30656, "name": "FENGYUN 1C DEB", "group": "fengyun-1c-debris", "lat": 76.03677863770147, "lon": 119.5124323615309, "alt_km": 712.7772545359094, "timestamp": "2025-12-11T05:00:26.586462+00:00", "meta": {"OBJECT_NAME": "FENGYUN 1C DEB", "OBJECT_ID": "1999-025APN", "EPOCH": "2025-12-10T18:40:26.050656", "MEAN_MOTION": 14.45266625, "ECCENTRICITY": 0.00302685, "INCLINATION": 99.0187, "RA_OF_ASC_NODE": 158.754, "ARG_OF_PERICENTER": 92.3696, "MEAN_ANOMALY": 268.0959, "EPHEMERIS_TYPE": 0, "CLASSIFICATION_TYPE": "U", "NORAD_CAT_ID": 30656, "ELEMENT_SET_NO": 999, "REV_AT_EPOCH": 97057, "BSTAR": 0.0043625291, "MEAN_MOTION_DOT": 0.00015377, "MEAN_MOTION_DDOT": 0}, "tle": {"line1": "1 30656U 99025APN 25344.77807929  .00015377  00000+0  43625-2 0  9996", "line2": "2 30656  99.0187 158.7540 0030268  92.3696 268.0959 14.45266625970578"}}, "geometry": {"type": "Point", "coordinates": [119.5124323615309, 76.03677863770147]}}, {"type": "Feature", "properties": {"norad_id": 30657, "name": "FENGYUN 1C DEB", "group": "fengyun-1c-debris", "lat": -52.022754068168894, "lon": -108.29994216104048, "alt_km": 775.3834454981952, "timestamp": "2025-12-11T05:00:26.586472+00:00", "meta": {"OBJECT_NAME": "FENGYUN 1C DEB", "OBJECT_ID": "1999-025APP", "EPOCH": "2025-12-09T05:28:19.816896", "MEAN_MOTION": 14.38523565, "ECCENTRICITY": 0.0015855, "INCLINATION": 98.8357, "RA_OF_ASC_NODE": 81.1557, "ARG_OF_PERICENTER": 356.1208, "MEAN_ANOMALY": 65.5278, "EPHEMERIS_TYPE": 0, "CLASSIFICATION_TYPE": "U", "NORAD_CAT_ID": 30657, "ELEMENT_SET_NO": 999, "REV_AT_EPOCH": 97182, "BSTAR": 0.0029903, "MEAN_MOTION_DOT": 9.118e-05, "MEAN_MOTION_DDOT": 0}, "tle": {"line1": "1 30657U 99025APP 25343.22800714  .00009118  00000+0  29903-2 0  9990", "line2": "2 30657  98.8357  81.1557 0015855 356.1208  65.5278 14.38523565971821"}}, "geometry": {"type": "Point", "coordinates": [-108.29994216104048, -52.022754068168894]}}, {"type": "Feature", "properties": {"norad_id": 30658, "name": "FENGYUN 1C DEB", "group": "fengyun-1c-debris", "lat": 35.70888061536653, "lon": 11.668609585246106, "alt_km": 1065.4364449200884, "timestamp": "2025-12-11T05:00:26.586482+00:00", "meta": {"OBJECT_NAME": "FENGYUN 1C DEB", "OBJECT_ID": "1999-025APQ", "EPOCH": "2025-12-10T13:14:54.674016", "MEAN_MOTION": 13.87185477, "ECCENTRICITY": 0.0183797, "INCLINATION": 98.4379, "RA_OF_ASC_NODE": 17.2002, "ARG_OF_PERICENTER": 233.513, "MEAN_ANOMALY": 124.8975, "EPHEMERIS_TYPE": 0, "CLASSIFICATION_TYPE": "U", "NORAD_CAT_ID": 30658, "ELEMENT_SET_NO": 999, "REV_AT_EPOCH": 94654, "BSTAR": 0.0024901, "MEAN_MOTION_DOT": 3.303e-05, "MEAN_MOTION_DDOT": 0}, "tle": {"line1": "1 30658U 99025APQ 25344.55202169  .00003303  00000+0  24901-2 0  9991", "line2": "2 30658  98.4379  17.2002 0183797 233.5130 124.8975 13.87185477946543"}}, "geometry": {"type": "Point", "coordinates": [11.668609585246106, 35.70888061536653]}}, {"type": "Feature", "properties": {"norad_id": 30660, "name": "FENGYUN 1C DEB", "group": "fengyun-1c-debris", "lat": -61.682232211211875, "lon": 97.02824964541746, "alt_km": 541.3696533768698, "timestamp": "2025-12-11T05:00:26.586492+00:00", "meta": {"OBJECT_NAME": "FENGYUN 1C DEB", "OBJECT_ID": "1999-025APS", "EPOCH": "2025-12-10T13:11:53.164032", "MEAN_MOTION": 14.8749386, "ECCENTRICITY": 0.0137315, "INCLINATION": 98.1386, "RA_OF_ASC_NODE": 80.9514, "ARG_OF_PERICENTER": 341.7184, "MEAN_ANOMALY": 31.3106, "EPHEMERIS_TYPE": 0, "CLASSIFICATION_TYPE": "U", "NORAD_CAT_ID": 30660, "ELEMENT_SET_NO": 999, "REV_AT_EPOCH": 752, "BSTAR": 0.00091475, "MEAN_MOTION_DOT": 9.808e-05, "MEAN_MOTION_DDOT": 0}, "tle": {"line1": "1 30660U 99025APS 25344.54992088  .00009808  00000+0  91475-3 0  9996", "line2": "2 30660  98.1386  80.9514 0137315 341.7184  31.3106 14.87493860  7525"}}, "geometry": {"type": "Point", "coordinates": [97.02824964541746, -61.682232211211875]}}, {"type": "Feature", "properties": {"norad_id": 30661, "name": "FENGYUN 1C DEB", "group": "fengyun-1c-debris", "lat": -7.919610318727326, "lon": 162.10513765369492, "alt_km": 768.7638971322585, "timestamp": "2025-12-11T05:00:26.586502+00:00", "meta": {"OBJECT_NAME": "FENGYUN 1C DEB", "OBJECT_ID": "1999-025APT", "EPOCH": "2025-12-10T10:27:27.881568", "MEAN_MOTION": 14.21140019, "ECCENTRICITY": 0.01447878, "INCLINATION": 99.4869, "RA_OF_ASC_NODE": 159.9425, "ARG_OF_PERICENTER": 52.0875, "MEAN_ANOMALY": 309.3288, "EPHEMERIS_TYPE": 0, "CLASSIFICATION_TYPE": "U", "NORAD_CAT_ID": 30661, "ELEMENT_SET_NO": 999, "REV_AT_EPOCH": 97869, "BSTAR": 0.00017496253, "MEAN_MOTION_DOT": 3.73e-06, "MEAN_MOTION_DDOT": 0}, "tle": {"line1": "1 30661U 99025APT 25344.43573937  .00000373  00000+0  17496-3 0  9992", "line2": "2 30661  99.4869 159.9425 0144787  52.0875 309.3288 14.21140019978691"}}, "geometry": {"type": "Point", "coordinates": [162.10513765369492, -7.919610318727326]}}]}